start=new Date('2023-02-28T00:00:00.000Z').valueOf();
sats=[{"NORAD_CAT_ID":"49162","BSTAR":"0.00011522000000","MEAN_ELEMENT_THEORY":"SGP4","CENTER_NAME":"EARTH","REF_FRAME":"TEME","MEAN_MOTION_DDOT":"0.0000000000000","OBJECT_ID":"2021-082AJ","MEAN_MOTION_DOT":"0.00001282","OBJECT_NAME":"STARLINK-3082","RCS_SIZE":"LARGE","GP_ID":"227194014","PERIAPSIS":"570.042","LAUNCH_DATE":"2021-09-14","CLASSIFICATION_TYPE":"U","ARG_OF_PERICENTER":"269.0466","INCLINATION":"70.0006","OBJECT_TYPE":"PAYLOAD","REV_AT_EPOCH":"8148","APOAPSIS":"574.030","COUNTRY_CODE":"US","EPHEMERIS_TYPE":"0","MEAN_MOTION":"14.98337202","TLE_LINE2":"2 49162  70.0006 202.8033 0002869 269.0466  91.0364 14.98337202 81486","EPOCH":"2023-02-27T19:04:57.225792","ELEMENT_SET_NO":"999","TIME_SYSTEM":"UTC","ECCENTRICITY":"0.00028690","DECAY_DATE":null,"FILE":"3846812","SITE":"AFWTR","MEAN_ANOMALY":"91.0364","RA_OF_ASC_NODE":"202.8033","SEMIMAJOR_AXIS":"6950.171","TLE_LINE1":"1 49162U 21082AJ  23058.79510678  .00001282  00000-0  11522-3 0  9993","PERIOD":"96.107"},{"LAUNCH_DATE":"2021-09-14","PERIAPSIS":"569.562","GP_ID":"227192762","RCS_SIZE":"LARGE","INCLINATION":"69.9994","ARG_OF_PERICENTER":"265.4509","OBJECT_TYPE":"PAYLOAD","REV_AT_EPOCH":"8198","CLASSIFICATION_TYPE":"U","BSTAR":"0.00035695000000","CENTER_NAME":"EARTH","MEAN_ELEMENT_THEORY":"SGP4","REF_FRAME":"TEME","NORAD_CAT_ID":"49163","OBJECT_NAME":"STARLINK-3088","MEAN_MOTION_DDOT":"0.0000000000000","OBJECT_ID":"2021-082AK","MEAN_MOTION_DOT":"0.00004172","SITE":"AFWTR","MEAN_ANOMALY":"94.6253","DECAY_DATE":null,"FILE":"3846812","PERIOD":"96.105","RA_OF_ASC_NODE":"182.7125","SEMIMAJOR_AXIS":"6950.108","TLE_LINE1":"1 49163U 21082AK  23058.83456412  .00004172  00000-0  35695-3 0  9992","MEAN_MOTION":"14.98357563","TLE_LINE2":"2 49163  69.9994 182.7125 0003468 265.4509  94.6253 14.98357563 81985","APOAPSIS":"574.383","COUNTRY_CODE":"US","EPHEMERIS_TYPE":"0","ECCENTRICITY":"0.00034680","ELEMENT_SET_NO":"999","EPOCH":"2023-02-27T20:01:46.339968","TIME_SYSTEM":"UTC"},{"DECAY_DATE":null,"FILE":"3846812","SITE":"AFWTR","MEAN_ANOMALY":"86.0178","RA_OF_ASC_NODE":"182.7333","SEMIMAJOR_AXIS":"6950.130","TLE_LINE1":"1 49164U 21082AL  23058.82504030  .00004794  00000-0  40911-3 0  9999","PERIOD":"96.106","APOAPSIS":"574.042","EPHEMERIS_TYPE":"0","COUNTRY_CODE":"US","MEAN_MOTION":"14.98350487","TLE_LINE2":"2 49164  70.0022 182.7333 0002946 274.0644  86.0178 14.98350487 81998","ELEMENT_SET_NO":"999","EPOCH":"2023-02-27T19:48:03.481920","TIME_SYSTEM":"UTC","ECCENTRICITY":"0.00029460","RCS_SIZE":"LARGE","GP_ID":"227193012","PERIAPSIS":"569.947","LAUNCH_DATE":"2021-09-14","CLASSIFICATION_TYPE":"U","INCLINATION":"70.0022","ARG_OF_PERICENTER":"274.0644","OBJECT_TYPE":"PAYLOAD","REV_AT_EPOCH":"8199","NORAD_CAT_ID":"49164","BSTAR":"0.00040911000000","MEAN_ELEMENT_THEORY":"SGP4","REF_FRAME":"TEME","CENTER_NAME":"EARTH","MEAN_MOTION_DDOT":"0.0000000000000","OBJECT_ID":"2021-082AL","MEAN_MOTION_DOT":"0.00004794","OBJECT_NAME":"STARLINK-3106"},{"OBJECT_NAME":"STARLINK-3052","MEAN_MOTION_DOT":"0.00000162","MEAN_MOTION_DDOT":"0.0000000000000","OBJECT_ID":"2021-082AM","MEAN_ELEMENT_THEORY":"SGP4","CENTER_NAME":"EARTH","REF_FRAME":"TEME","BSTAR":"0.00002137000000","NORAD_CAT_ID":"49165","OBJECT_TYPE":"PAYLOAD","REV_AT_EPOCH":"8150","ARG_OF_PERICENTER":"268.7097","INCLINATION":"70.0002","CLASSIFICATION_TYPE":"U","LAUNCH_DATE":"2021-09-14","PERIAPSIS":"570.068","RCS_SIZE":"LARGE","GP_ID":"227193764","ECCENTRICITY":"0.00028330","ELEMENT_SET_NO":"999","EPOCH":"2023-02-27T15:45:49.530528","TIME_SYSTEM":"UTC","TLE_LINE2":"2 49165  70.0002 203.1550 0002833 268.7097  91.3738 14.98336653 81500","MEAN_MOTION":"14.98336653","APOAPSIS":"574.006","EPHEMERIS_TYPE":"0","COUNTRY_CODE":"US","PERIOD":"96.107","TLE_LINE1":"1 49165U 21082AM  23058.65682327  .00000162  00000-0  21370-4 0  9991","RA_OF_ASC_NODE":"203.1550","SEMIMAJOR_AXIS":"6950.172","MEAN_ANOMALY":"91.3738","SITE":"AFWTR","FILE":"3846812","DECAY_DATE":null},{"GP_ID":"227194514","RCS_SIZE":"LARGE","PERIAPSIS":"569.787","LAUNCH_DATE":"2021-09-14","CLASSIFICATION_TYPE":"U","ARG_OF_PERICENTER":"254.5297","INCLINATION":"69.9997","OBJECT_TYPE":"PAYLOAD","REV_AT_EPOCH":"8202","NORAD_CAT_ID":"49166","BSTAR":"0.00029679000000","MEAN_ELEMENT_THEORY":"SGP4","CENTER_NAME":"EARTH","REF_FRAME":"TEME","MEAN_MOTION_DDOT":"0.0000000000000","OBJECT_ID":"2021-082AN","MEAN_MOTION_DOT":"0.00003451","OBJECT_NAME":"STARLINK-3089","DECAY_DATE":null,"FILE":"3846812","SITE":"AFWTR","MEAN_ANOMALY":"105.5508","RA_OF_ASC_NODE":"182.7256","SEMIMAJOR_AXIS":"6950.146","TLE_LINE1":"1 49166U 21082AN  23058.82980411  .00003451  00000-0  29679-3 0  9999","PERIOD":"96.106","APOAPSIS":"574.236","EPHEMERIS_TYPE":"0","COUNTRY_CODE":"US","MEAN_MOTION":"14.98345049","TLE_LINE2":"2 49166  69.9997 182.7256 0003201 254.5297 105.5508 14.98345049 82021","ELEMENT_SET_NO":"999","EPOCH":"2023-02-27T19:54:55.075104","TIME_SYSTEM":"UTC","ECCENTRICITY":"0.00032010"},{"INCLINATION":"70.0009","ARG_OF_PERICENTER":"273.7920","REV_AT_EPOCH":"8150","OBJECT_TYPE":"PAYLOAD","CLASSIFICATION_TYPE":"U","PERIAPSIS":"569.864","LAUNCH_DATE":"2021-09-14","GP_ID":"227193262","RCS_SIZE":"LARGE","OBJECT_NAME":"STARLINK-3054","OBJECT_ID":"2021-082AP","MEAN_MOTION_DDOT":"0.0000000000000","MEAN_MOTION_DOT":"0.00001430","BSTAR":"0.00012760000000","CENTER_NAME":"EARTH","REF_FRAME":"TEME","MEAN_ELEMENT_THEORY":"SGP4","NORAD_CAT_ID":"49167","PERIOD":"96.106","SEMIMAJOR_AXIS":"6950.163","RA_OF_ASC_NODE":"203.1672","TLE_LINE1":"1 49167U 21082AP  23058.65204516  .00001430  00000-0  12760-3 0  9994","SITE":"AFWTR","MEAN_ANOMALY":"86.2883","DECAY_DATE":null,"FILE":"3846812","ECCENTRICITY":"0.00031140","TIME_SYSTEM":"UTC","EPOCH":"2023-02-27T15:38:56.701824","ELEMENT_SET_NO":"999","MEAN_MOTION":"14.98339628","TLE_LINE2":"2 49167  70.0009 203.1672 0003114 273.7920  86.2883 14.98339628 81507","COUNTRY_CODE":"US","EPHEMERIS_TYPE":"0","APOAPSIS":"574.192"},{"LAUNCH_DATE":"2021-09-14","PERIAPSIS":"569.592","GP_ID":"227193512","RCS_SIZE":"LARGE","ARG_OF_PERICENTER":"271.6055","INCLINATION":"70.0022","REV_AT_EPOCH":"8202","OBJECT_TYPE":"PAYLOAD","CLASSIFICATION_TYPE":"U","BSTAR":"0.00056363000000","CENTER_NAME":"EARTH","REF_FRAME":"TEME","MEAN_ELEMENT_THEORY":"SGP4","NORAD_CAT_ID":"49168","OBJECT_NAME":"STARLINK-3101","OBJECT_ID":"2021-082AQ","MEAN_MOTION_DDOT":"0.0000000000000","MEAN_MOTION_DOT":"0.00006644","SITE":"AFWTR","MEAN_ANOMALY":"88.4712","DECAY_DATE":null,"FILE":"3846812","PERIOD":"96.105","SEMIMAJOR_AXIS":"6950.106","RA_OF_ASC_NODE":"182.7533","TLE_LINE1":"1 49168U 21082AQ  23058.81549712  .00006644  00000-0  56363-3 0  9992","MEAN_MOTION":"14.98358130","TLE_LINE2":"2 49168  70.0022 182.7533 0003423 271.6055  88.4712 14.98358130 82022","COUNTRY_CODE":"US","EPHEMERIS_TYPE":"0","APOAPSIS":"574.350","ECCENTRICITY":"0.00034230","TIME_SYSTEM":"UTC","ELEMENT_SET_NO":"999","EPOCH":"2023-02-27T19:34:18.951168"},{"TIME_SYSTEM":"UTC","ELEMENT_SET_NO":"999","EPOCH":"2023-02-27T14:52:48.182304","ECCENTRICITY":"0.00029950","COUNTRY_CODE":"US","EPHEMERIS_TYPE":"0","APOAPSIS":"574.135","TLE_LINE2":"2 49169  70.0007 183.2500 0002995 267.1521  92.9295 14.98331326 80793","MEAN_MOTION":"14.98331326","TLE_LINE1":"1 49169U 21082AR  23058.62000211  .00000420  00000-0  42985-4 0  9990","SEMIMAJOR_AXIS":"6950.189","RA_OF_ASC_NODE":"183.2500","PERIOD":"96.107","FILE":"3846812","DECAY_DATE":null,"MEAN_ANOMALY":"92.9295","SITE":"AFWTR","MEAN_MOTION_DOT":"0.00000420","OBJECT_ID":"2021-082AR","MEAN_MOTION_DDOT":"0.0000000000000","OBJECT_NAME":"STARLINK-3046","NORAD_CAT_ID":"49169","CENTER_NAME":"EARTH","REF_FRAME":"TEME","MEAN_ELEMENT_THEORY":"SGP4","BSTAR":"0.00004298500000","CLASSIFICATION_TYPE":"U","REV_AT_EPOCH":"8079","OBJECT_TYPE":"PAYLOAD","INCLINATION":"70.0007","ARG_OF_PERICENTER":"267.1521","RCS_SIZE":"LARGE","GP_ID":"227194264","PERIAPSIS":"569.972","LAUNCH_DATE":"2021-09-14"},{"RCS_SIZE":"LARGE","GP_ID":"227194015","PERIAPSIS":"569.870","LAUNCH_DATE":"2021-09-14","CLASSIFICATION_TYPE":"U","ARG_OF_PERICENTER":"270.0926","INCLINATION":"70.0002","OBJECT_TYPE":"PAYLOAD","REV_AT_EPOCH":"8033","NORAD_CAT_ID":"49170","BSTAR":"-0.00000044036000","CENTER_NAME":"EARTH","MEAN_ELEMENT_THEORY":"SGP4","REF_FRAME":"TEME","MEAN_MOTION_DDOT":"0.0000000000000","OBJECT_ID":"2021-082AS","MEAN_MOTION_DOT":"-0.00000098","OBJECT_NAME":"STARLINK-3074","DECAY_DATE":null,"FILE":"3846812","SITE":"AFWTR","MEAN_ANOMALY":"89.9872","RA_OF_ASC_NODE":"202.7282","SEMIMAJOR_AXIS":"6950.195","TLE_LINE1":"1 49170U 21082AS  23058.82644514 -.00000098  00000-0 -44036-6 0  9998","PERIOD":"96.107","APOAPSIS":"574.250","COUNTRY_CODE":"US","EPHEMERIS_TYPE":"0","MEAN_MOTION":"14.98329375","TLE_LINE2":"2 49170  70.0002 202.7282 0003151 270.0926  89.9872 14.98329375 80339","EPOCH":"2023-02-27T19:50:04.860096","ELEMENT_SET_NO":"999","TIME_SYSTEM":"UTC","ECCENTRICITY":"0.00031510"},{"MEAN_MOTION_DOT":"-0.00001573","OBJECT_ID":"2021-082AT","MEAN_MOTION_DDOT":"0.0000000000000","OBJECT_NAME":"STARLINK-3107","NORAD_CAT_ID":"49171","REF_FRAME":"TEME","MEAN_ELEMENT_THEORY":"SGP4","CENTER_NAME":"EARTH","BSTAR":"-0.00012407000000","CLASSIFICATION_TYPE":"U","REV_AT_EPOCH":"8146","OBJECT_TYPE":"PAYLOAD","ARG_OF_PERICENTER":"275.8281","INCLINATION":"70.0036","RCS_SIZE":"LARGE","GP_ID":"227192763","PERIAPSIS":"570.208","LAUNCH_DATE":"2021-09-14","TIME_SYSTEM":"UTC","ELEMENT_SET_NO":"999","EPOCH":"2023-02-27T15:29:08.174400","ECCENTRICITY":"0.00026070","EPHEMERIS_TYPE":"0","COUNTRY_CODE":"US","APOAPSIS":"573.832","TLE_LINE2":"2 49171  70.0036 203.1783 0002607 275.8281  84.2581 14.98342220 81464","MEAN_MOTION":"14.98342220","TLE_LINE1":"1 49171U 21082AT  23058.64523350 -.00001573  00000-0 -12407-3 0  9996","SEMIMAJOR_AXIS":"6950.155","RA_OF_ASC_NODE":"203.1783","PERIOD":"96.106","FILE":"3846812","DECAY_DATE":null,"MEAN_ANOMALY":"84.2581","SITE":"AFWTR"}];
